NORAD_CAT_ID,OBJECT_NAME,OBJECT_TYPE,EPOCH,MEAN_MOTION,ECCENTRICITY,INCLINATION,RA_OF_ASC_NODE,ARG_OF_PERICENTER,MEAN_ANOMALY,BSTAR,MEAN_MOTION_DOT,MEAN_MOTION_DDOT,TLE_LINE0,TLE_LINE1,TLE_LINE2,SEMIMAJOR_AXIS,PERIOD,APOGEE,PERIGEE,DECAYED
50844.0,STARLINK-3326,PAYLOAD,2022-07-12 19:14:07,15.08859159,0.0001866,53.2189,56.1634,63.0991,297.0192,0.00041406,6.311e-05,0.0,0 STARLINK-3326,1 50844U 22001AT  22193.80147600  .00006311  00000-0  41406-3 0  9998,2 50844  53.2189  56.1634 0001866  63.0991 297.0192 15.08859159 29872,6917.821999999999,95.436,540.9780000000002,538.396,0.0
50844.0,STARLINK-3326,PAYLOAD,2022-07-12 20:49:30,15.08858141,0.0001864,53.219,55.8659,62.7435,297.3747,0.00039602,6.023e-05,0.0,0 STARLINK-3326,1 50844U 22001AT  22193.86771585  .00006023  00000-0  39602-3 0  9994,2 50844  53.2190  55.8659 0001864  62.7435 297.3747 15.08858141 28603,6917.825,95.436,540.979,538.4,0.0
50844.0,STARLINK-3326,PAYLOAD,2022-07-13 07:57:11,15.0886766,0.0001867,53.2189,53.7844,62.7988,297.3195,0.00047883,7.346e-05,0.0,0 STARLINK-3326,1 50844U 22001AT  22194.33138747  .00007346  00000-0  47883-3 0  9993,2 50844  53.2189  53.7844 0001867  62.7988 297.3195 15.08867660 28670,6917.795999999999,95.436,540.952,538.369,0.0
50844.0,STARLINK-3326,PAYLOAD,2022-07-13 20:40:16,15.08854982,0.0001931,53.2192,51.4052,61.8708,298.2479,0.00010639,1.406e-05,0.0,0 STARLINK-3326,1 50844U 22001AT  22194.86130681  .00001406  00000-0  10639-3 0  9990,2 50844  53.2192  51.4052 0001931  61.8708 298.2479 15.08854982 30033,6917.835,95.437,541.035,538.364,0.0
50844.0,STARLINK-3326,PAYLOAD,2022-07-13 23:51:03,15.08842816,0.0001754999999999,53.2194,50.81,62.9688,297.1483,-9.0805e-05,-1.733e-05,0.0,0 STARLINK-3326,1 50844U 22001AT  22194.99379230 -.00001733  00000-0 -90805-4 0  9998,2 50844  53.2194  50.8100 0001755  62.9688 297.1483 15.08842816 30053,6917.871999999999,95.437,540.951,538.523,0.0
50844.0,STARLINK-3326,PAYLOAD,2022-07-14 07:48:00,15.08826828,0.0001774,53.2195,49.322,62.5436,297.5737,-0.00029696,-5.009e-05,0.0,0 STARLINK-3326,1 50844U 22001AT  22195.32500084 -.00005009  00000-0 -29696-3 0  9998,2 50844  53.2195  49.3220 0001774  62.5436 297.5737 15.08826828 30105,6917.920999999999,95.438,541.013,538.558,0.0
50844.0,STARLINK-3326,PAYLOAD,2022-07-14 20:31:05,15.08829436,0.000167,53.2201,46.9446,63.3716,296.7447,-0.00011298,-2.085e-05,0.0,0 STARLINK-3326,1 50844U 22001AT  22195.85492997 -.00002085  00000-0 -11298-3 0  9999,2 50844  53.2201  46.9446 0001670  63.3716 296.7447 15.08829436 28903,6917.913000000001,95.438,540.933,538.622,0.0
50844.0,STARLINK-3326,PAYLOAD,2022-07-15 01:17:14,15.0884192,0.0001804,53.2199,46.0524,62.1865,297.931,-2.2758000000000003e-06,-3.24e-06,0.0,0 STARLINK-3326,1 50844U 22001AT  22196.05364022 -.00000324  00000-0 -22758-5 0  9998,2 50844  53.2199  46.0524 0001804  62.1865 297.9310 15.08841920 30219,6917.875,95.437,540.988,538.492,0.0
50844.0,STARLINK-3326,PAYLOAD,2022-07-15 14:00:18,15.08848477,0.0001645,53.2206,43.6728,64.6146,295.5017,0.00011643,1.566e-05,0.0,0 STARLINK-3326,1 50844U 22001AT  22196.58355242  .00001566  00000-0  11643-3 0  9996,2 50844  53.2206  43.6728 0001645  64.6146 295.5017 15.08848477 30299,6917.854,95.437,540.857,538.581,0.0
50844.0,STARLINK-3326,PAYLOAD,2022-07-15 20:21:52,15.08850633,0.0001739,53.219,42.4843,59.0453,301.071,0.00055221,8.514e-05,0.0,0 STARLINK-3326,1 50844U 22001AT  22196.84851873  .00008514  00000-0  55221-3 0  9996,2 50844  53.2190  42.4843 0001739  59.0453 301.0710 15.08850633 29051,6917.848000000001,95.437,540.9159999999998,538.51,0.0
50844.0,STARLINK-3326,PAYLOAD,2022-07-15 23:32:38,15.08852083,0.000177,53.2192,41.8899,60.3726,299.7442,0.00053476,8.236e-05,0.0,0 STARLINK-3326,1 50844U 22001AT  22196.98099870  .00008236  00000-0  53476-3 0  9993,2 50844  53.2192  41.8899 0001770  60.3726 299.7442 15.08852083 29078,6917.843000000003,95.437,540.933,538.484,0.0
50844.0,STARLINK-3326,PAYLOAD,2022-07-16 20:12:37,15.08849056,0.0001679,53.2194,38.0243,56.933,303.1824,-0.00047539,-7.848e-05,0.0,0 STARLINK-3326,1 50844U 22001AT  22197.84210192 -.00007848  00000-0 -47539-3 0  9994,2 50844  53.2194  38.0243 0001679  56.9330 303.1824 15.08849056 30488,6917.853,95.437,540.879,538.556,0.0
50844.0,STARLINK-3326,PAYLOAD,2022-07-17 13:41:51,15.08840588,0.0001565999999999,53.2195,34.7534,57.0927,303.0215,-0.00039812,-6.619e-05,0.0,0 STARLINK-3326,1 50844U 22001AT  22198.57073794 -.00006619  00000-0 -39812-3 0  9990,2 50844  53.2195  34.7534 0001566  57.0927 303.0215 15.08840588 29318,6917.879,95.438,540.827,538.66,0.0
50844.0,STARLINK-3326,PAYLOAD,2022-07-17 20:03:24,15.08833922,0.0001678,53.2193,33.5641,60.9887,299.1273,-0.00045228,-7.478e-05,0.0,0 STARLINK-3326,1 50844U 22001AT  22198.83570171 -.00007478  00000-0 -45228-3 0  9992,2 50844  53.2193  33.5641 0001678  60.9887 299.1273 15.08833922 29351,6917.899,95.438,540.925,538.6030000000002,0.0
50844.0,STARLINK-3326,PAYLOAD,2022-07-18 05:35:44,15.088239499999998,0.0001647,53.2187,31.7794,59.1079,301.0074,4.8371e-05,4.82e-06,0.0,0 STARLINK-3326,1 50844U 22001AT  22199.23314900  .00000482  00000-0  48371-4 0  9992,2 50844  53.2187  31.7794 0001647  59.1079 301.0074 15.08823950 30693,6917.929,95.439,540.934,538.655,0.0
50844.0,STARLINK-3326,PAYLOAD,2022-07-18 18:18:49,15.08833005,0.0001652,53.218,29.4005,58.676,301.4394,0.00039747,6.042e-05,0.0,0 STARLINK-3326,1 50844U 22001AT  22199.76307275  .00006042  00000-0  39747-3 0  9991,2 50844  53.2180  29.4005 0001652  58.6760 301.4394 15.08833005 29499,6917.901999999999,95.438,540.91,538.624,0.0
50844.0,STARLINK-3326,PAYLOAD,2022-07-19 05:26:31,15.08844831,0.0001675999999999,53.2179,27.3188,58.9437,301.172,0.00082769,0.00012911,0.0,0 STARLINK-3326,1 50844U 22001AT  22200.22675339  .00012911  00000-0  82769-3 0  9998,2 50844  53.2179  27.3188 0001676  58.9437 301.1720 15.08844831 30846,6917.866,95.437,540.89,538.571,0.0
50844.0,STARLINK-3326,PAYLOAD,2022-07-19 11:48:04,15.08841562,0.00019,53.2176,26.1298,66.5637,293.5555,0.00053685,8.267e-05,0.0,0 STARLINK-3326,1 50844U 22001AT  22200.49171493  .00008267  00000-0  53685-3 0  9993,2 50844  53.2176  26.1298 0001900  66.5637 293.5555 15.08841562 29609,6917.876,95.437,541.055,538.4259999999998,0.0
50844.0,STARLINK-3326,PAYLOAD,2022-07-19 21:20:22,15.08837742,0.0001527,53.2181,24.346,69.1693,290.9463,0.00021121,3.075e-05,0.0,0 STARLINK-3326,1 50844U 22001AT  22200.88915493  .00003075  00000-0  21121-3 0  9994,2 50844  53.2181  24.3460 0001527  69.1693 290.9463 15.08837742 29662,6917.887,95.438,540.809,538.696,0.0
50844.0,STARLINK-3326,PAYLOAD,2022-07-20 11:38:50,15.0884943,0.000154,53.2173,21.6683,67.9056,292.21,0.0003457,5.22e-05,0.0,0 STARLINK-3326,1 50844U 22001AT  22201.48531081  .00005220  00000-0  34570-3 0  9994,2 50844  53.2173  21.6683 0001540  67.9056 292.2100 15.08849430 29754,6917.852,95.437,540.7819999999998,538.651,0.0
50844.0,STARLINK-3326,PAYLOAD,2022-07-20 21:11:09,15.08844244,0.0001349,53.2179,19.884,77.1642,282.9501,0.00022729,3.332e-05,0.0,0 STARLINK-3326,1 50844U 22001AT  22201.88275170  .00003332  00000-0  22729-3 0  9997,2 50844  53.2179  19.8840 0001349  77.1642 282.9501 15.08844244 29811,6917.8669999999975,95.437,540.6659999999998,538.799,0.0
50844.0,STARLINK-3326,PAYLOAD,2022-07-21 00:21:55,15.08847214,0.0001421,53.2174,19.2897,73.3416,286.7732,0.00026157,3.878e-05,0.0,0 STARLINK-3326,1 50844U 22001AT  22202.01523070  .00003878  00000-0  26157-3 0  9992,2 50844  53.2174  19.2897 0001421  73.3416 286.7732 15.08847214 31114,6917.858,95.437,540.706,538.74,0.0
50844.0,STARLINK-3326,PAYLOAD,2022-07-21 11:29:38,15.08835876,0.0001976999999999,53.2148,17.2071,77.7026,282.4187,-4.0185e-05,-9.28e-06,0.0,0 STARLINK-3326,1 50844U 22001AT  22202.47891669 -.00000928  00000-0 -40185-4 0  9997,2 50844  53.2148  17.2071 0001977  77.7026 282.4187 15.08835876 31183,6917.893,95.438,541.126,538.39,0.0
50844.0,STARLINK-3326,PAYLOAD,2022-07-21 17:51:11,15.088255300000002,0.0001471,53.2177,16.0193,58.162,301.9515,-0.00012237,-2.234e-05,0.0,0 STARLINK-3326,1 50844U 22001AT  22202.74388378 -.00002234  00000-0 -12237-3 0  9993,2 50844  53.2177  16.0193 0001471  58.1620 301.9515 15.08825530 31222,6917.925,95.438,540.807,538.7719999999998,0.0
50844.0,STARLINK-3326,PAYLOAD,2022-07-21 19:26:34,15.08827439,0.0001443,53.2176,15.7219,58.6449,301.4684,-7.0125e-05,-1.403e-05,0.0,0 STARLINK-3326,1 50844U 22001AT  22202.81012380 -.00001403  00000-0 -70125-4 0  9996,2 50844  53.2176  15.7219 0001443  58.6449 301.4684 15.08827439 29958,6917.919,95.438,540.7819999999998,538.786,0.0
50844.0,STARLINK-3326,PAYLOAD,2022-07-22 04:58:53,15.0882961,0.0001449,53.2175,13.9381,59.6512,300.4623,0.00012387,1.683e-05,0.0,0 STARLINK-3326,1 50844U 22001AT  22203.20756693  .00001683  00000-0  12387-3 0  9995,2 50844  53.2175  13.9381 0001449  59.6512 300.4623 15.08829610 30019,6917.9119999999975,95.438,540.78,538.775,0.0
50844.0,STARLINK-3326,PAYLOAD,2022-07-22 20:52:45,15.08838194,0.0001503,53.2176,10.9642,59.0118,301.1021,0.00033756,5.088e-05,0.0,0 STARLINK-3326,1 50844U 22001AT  22203.86997048  .00005088  00000-0  33756-3 0  9994,2 50844  53.2176  10.9642 0001503  59.0118 301.1021 15.08838194 30112,6917.886,95.438,540.7909999999998,538.711,0.0
50844.0,STARLINK-3326,PAYLOAD,2022-07-23 04:49:41,15.08842877,0.0001551,53.2177,9.4777,57.1458,302.9683,0.00052868,8.137e-05,0.0,0 STARLINK-3326,1 50844U 22001AT  22204.20117139  .00008137  00000-0  52868-3 0  9991,2 50844  53.2177   9.4777 0001551  57.1458 302.9683 15.08842877 31447,6917.871999999999,95.437,540.81,538.664,0.0
50844.0,STARLINK-3326,PAYLOAD,2022-07-23 11:11:13,15.0884899,0.0001551999999999,53.2177,8.2884,55.8298,304.2841,0.00058987,9.115e-05,0.0,0 STARLINK-3326,1 50844U 22001AT  22204.46612982  .00009115  00000-0  58987-3 0  9990,2 50844  53.2177   8.2884 0001552  55.8298 304.2841 15.08848990 30207,6917.853,95.437,540.7919999999998,538.644,0.0
